{
  "type": "FeatureCollection",
  "features": [
    {
      "type": "Feature",
      "properties": {
        "norad_id": 30766,
        "name": "FENGYUN 1C DEB",
        "group": "fengyun-1c-debris",
        "lat": 8.350178736464757,
        "lon": 161.74213362569148,
        "alt_km": 849.5181546471949,
        "timestamp": "2025-12-05T19:30:25.844293+00:00",
        "meta_object_name": "FENGYUN 1C DEB",
        "meta_object_id": "1999-025AUC",
        "meta_epoch": "2025-11-29T06:02:29.152320",
        "meta_mean_motion": 14.0947949,
        "meta_eccentricity": 0.0083655,
        "meta_inclination": 98.6728,
        "meta_ra_of_asc_node": 334.1388,
        "meta_arg_of_pericenter": 112.2766,
        "meta_mean_anomaly": 264.9384,
        "meta_ephemeris_type": 0,
        "meta_classification_type": "U",
        "meta_norad_cat_id": 30766,
        "meta_element_set_no": 999,
        "meta_rev_at_epoch": 62607,
        "meta_bstar": 0.00061885465,
        "meta_mean_motion_dot": 1.075e-05,
        "meta_mean_motion_ddot": 0,
        "tle_line1": "1 30766U 99025AUC 25333.25172630  .00001075  00000+0  61885-3 0  9992",
        "tle_line2": "2 30766  98.6728 334.1388 0083655 112.2766 264.9384 14.09479490626070"
      },
      "geometry": {
        "type": "Point",
        "coordinates": [
          161.74213362569148,
          8.350178736464757
        ]
      }
    },
    {
      "type": "Feature",
      "properties": {
        "norad_id": 30768,
        "name": "FENGYUN 1C DEB",
        "group": "fengyun-1c-debris",
        "lat": -14.89322476023434,
        "lon": -112.88969369206843,
        "alt_km": 732.7023759288786,
        "timestamp": "2025-12-05T19:30:25.844304+00:00",
        "meta_object_name": "FENGYUN 1C DEB",
        "meta_object_id": "1999-025AUE",
        "meta_epoch": "2025-12-03T12:26:09.435264",
        "meta_mean_motion": 14.4764738,
        "meta_eccentricity": 0.00260291,
        "meta_inclination": 98.6191,
        "meta_ra_of_asc_node": 67.0846,
        "meta_arg_of_pericenter": 127.8367,
        "meta_mean_anomaly": 354.974,
        "meta_ephemeris_type": 0,
        "meta_classification_type": "U",
        "meta_norad_cat_id": 30768,
        "meta_element_set_no": 999,
        "meta_rev_at_epoch": 97737,
        "meta_bstar": 0.0032376028,
        "meta_mean_motion_dot": 0.00011959,
        "meta_mean_motion_ddot": 0,
        "tle_line1": "1 30768U 99025AUE 25337.51816476  .00011959  00000+0  32376-2 0  9994",
        "tle_line2": "2 30768  98.6191  67.0846 0026029 127.8367 354.9740 14.47647380977373"
      },
      "geometry": {
        "type": "Point",
        "coordinates": [
          -112.88969369206843,
          -14.89322476023434
        ]
      }
    },
    {
      "type": "Feature",
      "properties": {
        "norad_id": 30770,
        "name": "FENGYUN 1C DEB",
        "group": "fengyun-1c-debris",
        "lat": 21.804063106418177,
        "lon": 169.55784773739808,
        "alt_km": 847.7593059125156,
        "timestamp": "2025-12-05T19:30:25.844314+00:00",
        "meta_object_name": "FENGYUN 1C DEB",
        "meta_object_id": "1999-025AUG",
        "meta_epoch": "2025-12-05T06:58:17.399424",
        "meta_mean_motion": 14.15670433,
        "meta_eccentricity": 0.00129052,
        "meta_inclination": 98.6543,
        "meta_ra_of_asc_node": 345.5576,
        "meta_arg_of_pericenter": 308.7544,
        "meta_mean_anomaly": 68.6844,
        "meta_ephemeris_type": 0,
        "meta_classification_type": "U",
        "meta_norad_cat_id": 30770,
        "meta_element_set_no": 999,
        "meta_rev_at_epoch": 96802,
        "meta_bstar": 0.00050201446,
        "meta_mean_motion_dot": 9.42e-06,
        "meta_mean_motion_ddot": 0,
        "tle_line1": "1 30770U 99025AUG 25339.29047916  .00000942  00000+0  50201-3 0  9997",
        "tle_line2": "2 30770  98.6543 345.5576 0012905 308.7544  68.6844 14.15670433968022"
      },
      "geometry": {
        "type": "Point",
        "coordinates": [
          169.55784773739808,
          21.804063106418177
        ]
      }
    },
    {
      "type": "Feature",
      "properties": {
        "norad_id": 30771,
        "name": "FENGYUN 1C DEB",
        "group": "fengyun-1c-debris",
        "lat": -73.71969207677026,
        "lon": 102.25637055058836,
        "alt_km": 748.53043330727,
        "timestamp": "2025-12-05T19:30:25.844323+00:00",
        "meta_object_name": "FENGYUN 1C DEB",
        "meta_object_id": "1999-025AUH",
        "meta_epoch": "2025-12-04T20:41:11.751648",
        "meta_mean_motion": 14.42950958,
        "meta_eccentricity": 0.0023965,
        "meta_inclination": 98.9044,
        "meta_ra_of_asc_node": 313.7308,
        "meta_arg_of_pericenter": 323.5668,
        "meta_mean_anomaly": 36.3889,
        "meta_ephemeris_type": 0,
        "meta_classification_type": "U",
        "meta_norad_cat_id": 30771,
        "meta_element_set_no": 999,
        "meta_rev_at_epoch": 96950,
        "meta_bstar": 0.0054597,
        "meta_mean_motion_dot": 0.00018327,
        "meta_mean_motion_ddot": 0,
        "tle_line1": "1 30771U 99025AUH 25338.86194157  .00018327  00000+0  54597-2 0  9997",
        "tle_line2": "2 30771  98.9044 313.7308 0023965 323.5668  36.3889 14.42950958969500"
      },
      "geometry": {
        "type": "Point",
        "coordinates": [
          102.25637055058836,
          -73.71969207677026
        ]
      }
    },
    {
      "type": "Feature",
      "properties": {
        "norad_id": 30802,
        "name": "FENGYUN 1C DEB",
        "group": "fengyun-1c-debris",
        "lat": -67.97949706912442,
        "lon": 89.09713870890326,
        "alt_km": 800.2227961019325,
        "timestamp": "2025-12-05T19:30:25.844333+00:00",
        "meta_object_name": "FENGYUN 1C DEB",
        "meta_object_id": "1999-025AUL",
        "meta_epoch": "2025-12-05T04:59:44.700864",
        "meta_mean_motion": 14.32346247,
        "meta_eccentricity": 0.00186046,
        "meta_inclination": 98.8383,
        "meta_ra_of_asc_node": 65.8554,
        "meta_arg_of_pericenter": 65.4139,
        "meta_mean_anomaly": 348.9834,
        "meta_ephemeris_type": 0,
        "meta_classification_type": "U",
        "meta_norad_cat_id": 30802,
        "meta_element_set_no": 999,
        "meta_rev_at_epoch": 97095,
        "meta_bstar": 0.0034973478,
        "meta_mean_motion_dot": 9.433e-05,
        "meta_mean_motion_ddot": 0,
        "tle_line1": "1 30802U 99025AUL 25339.20815626  .00009433  00000+0  34973-2 0  9996",
        "tle_line2": "2 30802  98.8383  65.8554 0018604  65.4139 348.9834 14.32346247970959"
      },
      "geometry": {
        "type": "Point",
        "coordinates": [
          89.09713870890326,
          -67.97949706912442
        ]
      }
    },
    {
      "type": "Feature",
      "properties": {
        "norad_id": 30803,
        "name": "FENGYUN 1C DEB",
        "group": "fengyun-1c-debris",
        "lat": 60.023413080139306,
        "lon": -3.6161092003904414,
        "alt_km": 921.7525371430838,
        "timestamp": "2025-12-05T19:30:25.844343+00:00",
        "meta_object_name": "FENGYUN 1C DEB",
        "meta_object_id": "1999-025AUM",
        "meta_epoch": "2025-12-05T02:30:30.135744",
        "meta_mean_motion": 14.11190712,
        "meta_eccentricity": 0.01071548,
        "meta_inclination": 99.246,
        "meta_ra_of_asc_node": 12.0585,
        "meta_arg_of_pericenter": 222.5722,
        "meta_mean_anomaly": 202.9633,
        "meta_ephemeris_type": 0,
        "meta_classification_type": "U",
        "meta_norad_cat_id": 30803,
        "meta_element_set_no": 999,
        "meta_rev_at_epoch": 95891,
        "meta_bstar": 0.0026693666,
        "meta_mean_motion_dot": 5.035e-05,
        "meta_mean_motion_ddot": 0,
        "tle_line1": "1 30803U 99025AUM 25339.10451546  .00005035  00000+0  26694-2 0  9998",
        "tle_line2": "2 30803  99.2460  12.0585 0107154 222.5722 202.9633 14.11190712958911"
      },
      "geometry": {
        "type": "Point",
        "coordinates": [
          -3.6161092003904414,
          60.023413080139306
        ]
      }
    },
    {
      "type": "Feature",
      "properties": {
        "norad_id": 30804,
        "name": "FENGYUN 1C DEB",
        "group": "fengyun-1c-debris",
        "lat": 81.03585914935103,
        "lon": -38.392764540105944,
        "alt_km": 772.4508809043245,
        "timestamp": "2025-12-05T19:30:25.844353+00:00",
        "meta_object_name": "FENGYUN 1C DEB",
        "meta_object_id": "1999-025AUN",
        "meta_epoch": "2025-12-04T03:35:57.514272",
        "meta_mean_motion": 14.54535602,
        "meta_eccentricity": 0.01852853,
        "meta_inclination": 98.8963,
        "meta_ra_of_asc_node": 43.0368,
        "meta_arg_of_pericenter": 216.62,
        "meta_mean_anomaly": 171.9996,
        "meta_ephemeris_type": 0,
        "meta_classification_type": "U",
        "meta_norad_cat_id": 30804,
        "meta_element_set_no": 999,
        "meta_rev_at_epoch": 99352,
        "meta_bstar": 0.0010209379,
        "meta_mean_motion_dot": 5.418e-05,
        "meta_mean_motion_ddot": 0,
        "tle_line1": "1 30804U 99025AUN 25338.14997123  .00005418  00000+0  10209-2 0  9998",
        "tle_line2": "2 30804  98.8963  43.0368 0185285 216.6200 171.9996 14.54535602993525"
      },
      "geometry": {
        "type": "Point",
        "coordinates": [
          -38.392764540105944,
          81.03585914935103
        ]
      }
    }
  ]
}